{
  "norad_id": 56549,
  "name": "STARLINK-6263",
  "history": [
    {
      "epoch": "2026-03-28T18:35:09.220992Z",
      "apogee_km": 486.5520304444253,
      "perigee_km": 484.51544206356357,
      "latitude_deg": 4.539801300095925e-05,
      "longitude_deg": 10.5870961649415,
      "height_km": 485.11663143022867,
      "semi_major_axis_km": 6863.670736253994,
      "eccentricity": 0.00014836,
      "inclination_deg": 42.9992,
      "raan_deg": 115.5655,
      "arg_perigee_deg": 280.9753,
      "mean_anomaly_deg": 79.0932,
      "mean_motion_rev_day": 15.26750602
    },
    {
      "epoch": "2026-03-29T02:26:11.571648Z",
      "apogee_km": 486.4885030016603,
      "perigee_km": 484.58314742538187,
      "latitude_deg": -2.822596306451345e-05,
      "longitude_deg": -109.33979164963266,
      "height_km": 485.15413137977623,
      "semi_major_axis_km": 6863.672825213521,
      "eccentricity": 0.0001388,
      "inclination_deg": 42.9996,
      "raan_deg": 113.7209,
      "arg_perigee_deg": 279.5729,
      "mean_anomaly_deg": 80.4965,
      "mean_motion_rev_day": 15.26749905
    },
    {
      "epoch": "2026-03-29T08:43:01.281792Z",
      "apogee_km": 486.45639915168886,
      "perigee_km": 484.596483632341,
      "latitude_deg": -1.9817936440661997e-05,
      "longitude_deg": 154.7192619053516,
      "height_km": 485.14366863824944,
      "semi_major_axis_km": 6863.663441392015,
      "eccentricity": 0.00013549,
      "inclination_deg": 42.9995,
      "raan_deg": 112.245,
      "arg_perigee_deg": 279.874,
      "mean_anomaly_deg": 80.1958,
      "mean_motion_rev_day": 15.26753036
    },
    {
      "epoch": "2026-03-30T09:50:20.882688Z",
      "apogee_km": 486.3919209219612,
      "perigee_km": 484.7048270570349,
      "latitude_deg": -3.506885988894785e-06,
      "longitude_deg": 130.9515812449845,
      "height_km": 485.24428297874465,
      "semi_major_axis_km": 6863.685373989498,
      "eccentricity": 0.0001229,
      "inclination_deg": 42.9982,
      "raan_deg": 106.3407,
      "arg_perigee_deg": 275.4787,
      "mean_anomaly_deg": 84.5924,
      "mean_motion_rev_day": 15.26745718
    },
    {
      "epoch": "2026-03-30T17:41:23.353440Z",
      "apogee_km": 486.38227459046993,
      "perigee_km": 484.73141894644505,
      "latitude_deg": 6.206024065271066e-05,
      "longitude_deg": 11.023640520774704,
      "height_km": 485.25223545593633,
      "semi_major_axis_km": 6863.693846768457,
      "eccentricity": 0.00012026,
      "inclination_deg": 42.9981,
      "raan_deg": 104.4954,
      "arg_perigee_deg": 275.6328,
      "mean_anomaly_deg": 84.4387,
      "mean_motion_rev_day": 15.26742891
    },
    {
      "epoch": "2026-03-31T17:14:30.894432Z",
      "apogee_km": 486.26330399916696,
      "perigee_km": 484.86173655712537,
      "latitude_deg": 1.729199796953185e-05,
      "longitude_deg": 11.240523124720639,
      "height_km": 485.2774588446757,
      "semi_major_axis_km": 6863.699520278145,
      "eccentricity": 0.0001021,
      "inclination_deg": 43.0013,
      "raan_deg": 98.961,
      "arg_perigee_deg": 275.0487,
      "mean_anomaly_deg": 85.0248,
      "mean_motion_rev_day": 15.26740998
    },
    {
      "epoch": "2026-04-01T16:47:38.024160Z",
      "apogee_km": 486.2564552866743,
      "perigee_km": 484.86861524064534,
      "latitude_deg": 8.779655956401017e-06,
      "longitude_deg": 11.457862636458858,
      "height_km": 485.2796561280415,
      "semi_major_axis_km": 6863.6995352636595,
      "eccentricity": 0.0001011,
      "inclination_deg": 43.0016,
      "raan_deg": 93.4253,
      "arg_perigee_deg": 274.92,
      "mean_anomaly_deg": 85.1536,
      "mean_motion_rev_day": 15.26740993
    },
    {
      "epoch": "2026-04-02T16:20:45.357792Z",
      "apogee_km": 486.2249436333923,
      "perigee_km": 484.8968180934453,
      "latitude_deg": -5.660237546047252e-05,
      "longitude_deg": 11.67478916532932,
      "height_km": 485.2817785446334,
      "semi_major_axis_km": 6863.6978808634185,
      "eccentricity": 9.675e-05,
      "inclination_deg": 43.0018,
      "raan_deg": 87.8901,
      "arg_perigee_deg": 274.8139,
      "mean_anomaly_deg": 85.2601,
      "mean_motion_rev_day": 15.26741545
    },
    {
      "epoch": "2026-04-03T15:53:52.151424Z",
      "apogee_km": 486.29605705177073,
      "perigee_km": 484.79840115298157,
      "latitude_deg": 5.316126944463945e-05,
      "longitude_deg": 11.893957951970952,
      "height_km": 485.23241146052777,
      "semi_major_axis_km": 6863.684229102376,
      "eccentricity": 0.0001091,
      "inclination_deg": 43.0024,
      "raan_deg": 82.3547,
      "arg_perigee_deg": 277.0268,
      "mean_anomaly_deg": 83.046,
      "mean_motion_rev_day": 15.267461
    },
    {
      "epoch": "2026-04-04T15:26:59.861760Z",
      "apogee_km": 486.3202217064836,
      "perigee_km": 484.8033442754431,
      "latitude_deg": -4.859311535118096e-05,
      "longitude_deg": 12.109270317227274,
      "height_km": 485.33576252967066,
      "semi_major_axis_km": 6863.698782990963,
      "eccentricity": 0.0001105,
      "inclination_deg": 43.003,
      "raan_deg": 76.8195,
      "arg_perigee_deg": 270.2187,
      "mean_anomaly_deg": 89.8537,
      "mean_motion_rev_day": 15.26741244
    },
    {
      "epoch": "2026-04-05T08:43:20.474688Z",
      "apogee_km": 486.23720606217466,
      "perigee_km": 485.079970126023,
      "latitude_deg": -4.626610736021415e-08,
      "longitude_deg": 108.25388194136337,
      "height_km": 485.33928257866694,
      "semi_major_axis_km": 6863.795588094099,
      "eccentricity": 8.43e-05,
      "inclination_deg": 43.0011,
      "raan_deg": 72.7593,
      "arg_perigee_deg": 279.5238,
      "mean_anomaly_deg": 80.5518,
      "mean_motion_rev_day": 15.26708945
    },
    {
      "epoch": "2026-04-05T15:00:08.012736Z",
      "apogee_km": 486.43209791361824,
      "perigee_km": 484.71479755959535,
      "latitude_deg": 3.0376233054856502e-05,
      "longitude_deg": 12.324133548043264,
      "height_km": 485.42704128610455,
      "semi_major_axis_km": 6863.7104477366065,
      "eccentricity": 0.0001251,
      "inclination_deg": 43.0026,
      "raan_deg": 71.2855,
      "arg_perigee_deg": 264.8777,
      "mean_anomaly_deg": 95.1932,
      "mean_motion_rev_day": 15.26737352
    },
    {
      "epoch": "2026-04-06T06:42:12.600000Z",
      "apogee_km": 486.31357598067643,
      "perigee_km": 484.8222301793339,
      "latitude_deg": -9.951664263657153e-06,
      "longitude_deg": 132.47064715916005,
      "height_km": 485.4875883689092,
      "semi_major_axis_km": 6863.704903080004,
      "eccentricity": 0.00010864,
      "inclination_deg": 43.0007,
      "raan_deg": 67.596,
      "arg_perigee_deg": 258.9339,
      "mean_anomaly_deg": 101.139,
      "mean_motion_rev_day": 15.26739202
    },
    {
      "epoch": "2026-04-07T07:49:31.775808Z",
      "apogee_km": 486.4169706525181,
      "perigee_km": 484.60565386291273,
      "latitude_deg": -8.847847618752959e-06,
      "longitude_deg": 108.70442278918476,
      "height_km": 485.2962728237275,
      "semi_major_axis_km": 6863.648312257715,
      "eccentricity": 0.00013195,
      "inclination_deg": 43.0022,
      "raan_deg": 61.6914,
      "arg_perigee_deg": 269.4939,
      "mean_anomaly_deg": 90.5761,
      "mean_motion_rev_day": 15.26758084
    },
    {
      "epoch": "2026-04-07T18:48:59.526720Z",
      "apogee_km": 486.36294570264454,
      "perigee_km": 484.70742797117873,
      "latitude_deg": -1.2137546558953277e-05,
      "longitude_deg": -59.19599691401383,
      "height_km": 485.2879470433964,
      "semi_major_axis_km": 6863.672186836911,
      "eccentricity": 0.0001206,
      "inclination_deg": 43.0021,
      "raan_deg": 59.108,
      "arg_perigee_deg": 271.6683,
      "mean_anomaly_deg": 88.403,
      "mean_motion_rev_day": 15.26750118
    },
    {
      "epoch": "2026-04-08T13:39:29.090016Z",
      "apogee_km": 486.3497853525914,
      "perigee_km": 484.72734972193757,
      "latitude_deg": -3.249144792397381e-05,
      "longitude_deg": 12.978803818829077,
      "height_km": 485.2393152598894,
      "semi_major_axis_km": 6863.675567537264,
      "eccentricity": 0.00011819,
      "inclination_deg": 43.0025,
      "raan_deg": 54.6798,
      "arg_perigee_deg": 275.3857,
      "mean_anomaly_deg": 84.6859,
      "mean_motion_rev_day": 15.2674899
    }
  ]
}